ONEWEB-0403             
1 50483U 21132Q   24193.31360514  .00000043  00000+0  77025-4 0  9992
2 50483  87.9146 115.9838 0002201  82.2415 277.8967 13.18687532128561
ONEWEB-0404             
1 50484U 21132R   24193.43378789  .00000511  00000+0  14073-2 0  9991
2 50484  87.8980 161.5269 0002199  96.0755 264.0624 13.11418864123193
ONEWEB-0405             
1 50485U 21132S   24193.32941155  .00000050  00000+0  94986-4 0  9994
2 50485  87.9148 115.9702 0002501  78.2715 281.8698 13.18684381128965
ONEWEB-0406             
1 50486U 21132T   24193.31834661  .00000047  00000+0  86683-4 0  9998
2 50486  87.9150 115.9844 0001556  95.9992 264.1318 13.18688182128593
ONEWEB-0407             
1 50487U 21132U   24193.31203211  .00000121  00000+0  27536-3 0  9994
2 50487  87.9145 115.9864 0002206  79.7049 280.4331 13.18687770129821
ONEWEB-0409             
1 50488U 21132V   24193.43210388  .00000460  00000+0  12624-2 0  9998
2 50488  87.8972 161.5217 0001851  95.2962 264.8377 13.11419147123082
ONEWEB-0412             
1 50489U 21132W   24193.30097159  .00000127  00000+0  28937-3 0  9999
2 50489  87.9150 115.9892 0002558  78.0497 282.0921 13.18685582128628
ONEWEB-0413             
1 50490U 21132X   24193.30571386  .00000126  00000+0  28646-3 0  9996
2 50490  87.9150 116.0011 0002430  74.1261 286.0139 13.18687737128562
